{
  "type": "FeatureCollection",
  "features": [
    {
      "type": "Feature",
      "properties": {
        "norad_id": 34366,
        "name": "IRIDIUM 33 DEB",
        "group": "iridium-33-debris",
        "lat": 41.784895289413534,
        "lon": 46.698318249660424,
        "alt_km": 699.5938176946838,
        "timestamp": "2025-12-26T05:31:12.891657+00:00",
        "meta_object_name": "IRIDIUM 33 DEB",
        "meta_object_id": "1997-051FJ",
        "meta_epoch": "2025-12-25T13:24:52.713216",
        "meta_mean_motion": 14.5415312,
        "meta_eccentricity": 0.0023044,
        "meta_inclination": 86.3679,
        "meta_ra_of_asc_node": 43.7363,
        "meta_arg_of_pericenter": 99.9841,
        "meta_mean_anomaly": 31.4578,
        "meta_ephemeris_type": 0,
        "meta_classification_type": "U",
        "meta_norad_cat_id": 34366,
        "meta_element_set_no": 999,
        "meta_rev_at_epoch": 88368,
        "meta_bstar": 0.00092452,
        "meta_mean_motion_dot": 3.943e-05,
        "meta_mean_motion_ddot": 0,
        "tle_line1": "1 34366U 97051FJ  25359.55894344  .00003943  00000+0  92452-3 0  9993",
        "tle_line2": "2 34366  86.3679  43.7363 0023044  99.9841  31.4578 14.54153120883689"
      },
      "geometry": {
        "type": "Point",
        "coordinates": [
          46.698318249660424,
          41.784895289413534
        ]
      }
    },
    {
      "type": "Feature",
      "properties": {
        "norad_id": 34375,
        "name": "IRIDIUM 33 DEB",
        "group": "iridium-33-debris",
        "lat": 5.1509113943887215,
        "lon": 177.58576716007107,
        "alt_km": 819.685711458198,
        "timestamp": "2025-12-26T05:31:12.891668+00:00",
        "meta_object_name": "IRIDIUM 33 DEB",
        "meta_object_id": "1997-051FT",
        "meta_epoch": "2025-12-25T12:52:34.268736",
        "meta_mean_motion": 14.18014941,
        "meta_eccentricity": 0.0103685,
        "meta_inclination": 86.4324,
        "meta_ra_of_asc_node": 177.5431,
        "meta_arg_of_pericenter": 86.7144,
        "meta_mean_anomaly": 341.7037,
        "meta_ephemeris_type": 0,
        "meta_classification_type": "U",
        "meta_norad_cat_id": 34375,
        "meta_element_set_no": 999,
        "meta_rev_at_epoch": 86893,
        "meta_bstar": 0.00040149,
        "meta_mean_motion_dot": 8.86e-06,
        "meta_mean_motion_ddot": 0,
        "tle_line1": "1 34375U 97051FT  25359.53650774  .00000886  00000+0  40149-3 0  9997",
        "tle_line2": "2 34375  86.4324 177.5431 0103685  86.7144 341.7037 14.18014941868934"
      },
      "geometry": {
        "type": "Point",
        "coordinates": [
          177.58576716007107,
          5.1509113943887215
        ]
      }
    },
    {
      "type": "Feature",
      "properties": {
        "norad_id": 34376,
        "name": "IRIDIUM 33 DEB",
        "group": "iridium-33-debris",
        "lat": 23.76724018212949,
        "lon": 2.1079906076138464,
        "alt_km": 686.851542800302,
        "timestamp": "2025-12-26T05:31:12.891678+00:00",
        "meta_object_name": "IRIDIUM 33 DEB",
        "meta_object_id": "1997-051FU",
        "meta_epoch": "2025-12-25T17:55:07.570560",
        "meta_mean_motion": 14.62744927,
        "meta_eccentricity": 0.00285719,
        "meta_inclination": 86.2988,
        "meta_ra_of_asc_node": 0.6918,
        "meta_arg_of_pericenter": 124.2341,
        "meta_mean_anomaly": 236.1583,
        "meta_ephemeris_type": 0,
        "meta_classification_type": "U",
        "meta_norad_cat_id": 34376,
        "meta_element_set_no": 999,
        "meta_rev_at_epoch": 88197,
        "meta_bstar": 0.0015826754,
        "meta_mean_motion_dot": 8.136e-05,
        "meta_mean_motion_ddot": 0,
        "tle_line1": "1 34376U 97051FU  25359.74661540  .00008136  00000+0  15827-2 0  9994",
        "tle_line2": "2 34376  86.2988   0.6918 0028571 124.2341 236.1583 14.62744927881977"
      },
      "geometry": {
        "type": "Point",
        "coordinates": [
          2.1079906076138464,
          23.76724018212949
        ]
      }
    },
    {
      "type": "Feature",
      "properties": {
        "norad_id": 34486,
        "name": "IRIDIUM 33 DEB",
        "group": "iridium-33-debris",
        "lat": 61.90753972521934,
        "lon": 12.580464111333043,
        "alt_km": 562.5798092609139,
        "timestamp": "2025-12-26T05:31:12.891688+00:00",
        "meta_object_name": "IRIDIUM 33 DEB",
        "meta_object_id": "1997-051GB",
        "meta_epoch": "2025-12-25T12:07:55.559424",
        "meta_mean_motion": 14.96371429,
        "meta_eccentricity": 0.0013919,
        "meta_inclination": 86.3932,
        "meta_ra_of_asc_node": 6.1286,
        "meta_arg_of_pericenter": 75.9543,
        "meta_mean_anomaly": 45.9427,
        "meta_ephemeris_type": 0,
        "meta_classification_type": "U",
        "meta_norad_cat_id": 34486,
        "meta_element_set_no": 999,
        "meta_rev_at_epoch": 89177,
        "meta_bstar": 0.002266,
        "meta_mean_motion_dot": 0.00025787,
        "meta_mean_motion_ddot": 0,
        "tle_line1": "1 34486U 97051GB  25359.50550416  .00025787  00000+0  22660-2 0  9993",
        "tle_line2": "2 34486  86.3932   6.1286 0013919  75.9543  45.9427 14.96371429891776"
      },
      "geometry": {
        "type": "Point",
        "coordinates": [
          12.580464111333043,
          61.90753972521934
        ]
      }
    },
    {
      "type": "Feature",
      "properties": {
        "norad_id": 34487,
        "name": "IRIDIUM 33 DEB",
        "group": "iridium-33-debris",
        "lat": 33.331651673596205,
        "lon": 8.979356024066703,
        "alt_km": 731.4461850028165,
        "timestamp": "2025-12-26T05:31:12.891699+00:00",
        "meta_object_name": "IRIDIUM 33 DEB",
        "meta_object_id": "1997-051GC",
        "meta_epoch": "2025-12-25T01:19:57.963072",
        "meta_mean_motion": 14.43231551,
        "meta_eccentricity": 0.00332623,
        "meta_inclination": 86.3429,
        "meta_ra_of_asc_node": 7.0742,
        "meta_arg_of_pericenter": 90.1032,
        "meta_mean_anomaly": 325.4273,
        "meta_ephemeris_type": 0,
        "meta_classification_type": "U",
        "meta_norad_cat_id": 34487,
        "meta_element_set_no": 999,
        "meta_rev_at_epoch": 88426,
        "meta_bstar": 0.0001885437,
        "meta_mean_motion_dot": 6.59e-06,
        "meta_mean_motion_ddot": 0,
        "tle_line1": "1 34487U 97051GC  25359.05553198  .00000659  00000+0  18854-3 0  9996",
        "tle_line2": "2 34487  86.3429   7.0742 0033262  90.1032 325.4273 14.43231551884264"
      },
      "geometry": {
        "type": "Point",
        "coordinates": [
          8.979356024066703,
          33.331651673596205
        ]
      }
    },
    {
      "type": "Feature",
      "properties": {
        "norad_id": 34488,
        "name": "IRIDIUM 33 DEB",
        "group": "iridium-33-debris",
        "lat": -57.644417442605814,
        "lon": -66.70734845937203,
        "alt_km": 473.9041865092104,
        "timestamp": "2025-12-26T05:31:12.891709+00:00",
        "meta_object_name": "IRIDIUM 33 DEB",
        "meta_object_id": "1997-051GD",
        "meta_epoch": "2025-12-25T20:22:16.973184",
        "meta_mean_motion": 15.32823177,
        "meta_eccentricity": 0.00085439,
        "meta_inclination": 86.325,
        "meta_ra_of_asc_node": 299.3053,
        "meta_arg_of_pericenter": 30.257,
        "meta_mean_anomaly": 329.9171,
        "meta_ephemeris_type": 0,
        "meta_classification_type": "U",
        "meta_norad_cat_id": 34488,
        "meta_element_set_no": 999,
        "meta_rev_at_epoch": 89440,
        "meta_bstar": 0.0046585997,
        "meta_mean_motion_dot": 0.00150449,
        "meta_mean_motion_ddot": 0,
        "tle_line1": "1 34488U 97051GD  25359.84880756  .00150449  00000+0  46586-2 0  9992",
        "tle_line2": "2 34488  86.3250 299.3053 0008543  30.2570 329.9171 15.32823177894407"
      },
      "geometry": {
        "type": "Point",
        "coordinates": [
          -66.70734845937203,
          -57.644417442605814
        ]
      }
    },
    {
      "type": "Feature",
      "properties": {
        "norad_id": 34492,
        "name": "IRIDIUM 33 DEB",
        "group": "iridium-33-debris",
        "lat": 1.1986920012916633,
        "lon": -30.7509522271991,
        "alt_km": 940.148264881489,
        "timestamp": "2025-12-26T05:31:12.891719+00:00",
        "meta_object_name": "IRIDIUM 33 DEB",
        "meta_object_id": "1997-051GH",
        "meta_epoch": "2025-12-24T21:39:21.521088",
        "meta_mean_motion": 14.25932668,
        "meta_eccentricity": 0.0188786,
        "meta_inclination": 86.473,
        "meta_ra_of_asc_node": 329.7114,
        "meta_arg_of_pericenter": 198.6425,
        "meta_mean_anomaly": 190.963,
        "meta_ephemeris_type": 0,
        "meta_classification_type": "U",
        "meta_norad_cat_id": 34492,
        "meta_element_set_no": 999,
        "meta_rev_at_epoch": 85232,
        "meta_bstar": 0.0029502,
        "meta_mean_motion_dot": 8.501e-05,
        "meta_mean_motion_ddot": 0,
        "tle_line1": "1 34492U 97051GH  25358.90233242  .00008501  00000+0  29502-2 0  9995",
        "tle_line2": "2 34492  86.4730 329.7114 0188786 198.6425 190.9630 14.25932668852326"
      },
      "geometry": {
        "type": "Point",
        "coordinates": [
          -30.7509522271991,
          1.1986920012916633
        ]
      }
    }
  ]
}